STARLINK-5273           
1 54162U 22141F   26068.26986311 -.00000624  00000+0 -21088-4 0  9992
2 54162  53.2190  16.0168 0001459 101.9594 258.1562 15.08842661185655
KUIPER-00148            
1 65769U 25217H   26068.27522507  .00015783  00000+0  98730-3 0  9995
2 65769  51.8794  26.5769 0008108 351.8096   8.2745 15.09536529 25078
